OBJECT_NAME,OBJECT_ID,EPOCH,MEAN_MOTION,ECCENTRICITY,INCLINATION,RA_OF_ASC_NODE,ARG_OF_PERICENTER,MEAN_ANOMALY,EPHEMERIS_TYPE,CLASSIFICATION_TYPE,NORAD_CAT_ID,ELEMENT_SET_NO,REV_AT_EPOCH,BSTAR,MEAN_MOTION_DOT,MEAN_MOTION_DDOT
ICEYE-X39,2024-149CG,2026-06-20T05:05:56.404032,14.99909996,.0005642,97.6757,248.1948,110.8245,249.3583,0,U,60546,999,10057,.19379E-3,.2346E-4,0
UMBRA-10,2024-149CH,2026-06-20T05:32:29.803200,15.18117660,.000045,97.6973,258.5166,96.2050,263.9234,0,U,60547,999,10119,.63693E-3,.12937E-3,0
ICEYE-X33,2024-149CJ,2026-06-20T04:03:42.562368,15.00886995,.00018635,97.7287,250.2934,87.7623,272.3814,0,U,60548,999,10065,.30043992E-3,.3764E-4,0
ICEYE-X40,2024-149CK,2026-06-20T04:11:56.646816,14.97952761,.00064517,97.6821,247.6228,73.4508,286.7422,0,U,60549,999,10052,.12965842E-3,.1471E-4,0
SATELIOT_1,2024-149CL,2026-06-20T00:46:31.234080,14.98081894,.00083965,97.6759,246.8828,72.2480,287.9659,0,U,60550,999,10049,.18921942E-3,.2182E-4,0
BRO-14,2024-149CM,2026-06-20T11:20:12.623712,14.96180610,.0008055,97.6871,247.1911,88.7163,271.4982,0,U,60551,999,10048,.78789E-4,.831E-5,0
SATELIOT_3,2024-149CN,2026-06-20T11:24:57.391200,14.98063078,.0005953,97.6815,248.1133,79.2522,280.9371,0,U,60552,999,10057,.13612E-3,.1552E-4,0
BRO-15,2024-149CP,2026-06-19T17:15:36.186048,14.96168721,.00093107,97.6803,246.0506,80.7782,279.4492,0,U,60553,999,10038,.11371806E-3,.1225E-4,0
UM5-RIBAT,2024-149CQ,2026-06-20T11:19:28.500096,15.01090090,.0003288,97.6628,249.2283,56.5860,303.5678,0,U,60554,999,10068,.18095E-3,.2256E-4,0
UM5-EOSAT,2024-149CR,2026-06-20T04:05:47.469984,15.01552474,.00088875,97.6716,249.8717,105.2114,255.0094,0,U,60555,999,10066,.28428595E-3,.3625E-4,0
LASARSAT,2024-247Q,2026-06-20T06:29:39.147072,15.46534749,.0007836,44.9733,244.8864,348.4451,11.6258,0,U,62391,999,8379,.56523E-3,.28493E-3,0
CROCUBE,2024-247T,2026-06-19T11:46:17.971392,15.48397693,.00077409,44.9701,246.5654,349.0739,10.9982,0,U,62394,999,8370,.60621754E-3,.32668E-3,0
TEVEL2-4,2025-052D,2026-06-20T10:37:00.202080,15.34707854,.0004959,97.3895,67.8392,96.9497,263.2310,0,U,63213,999,7061,.47906E-3,.16057E-3,0
TEVEL2-5,2025-052E,2026-06-20T06:25:21.136800,15.34527610,.0004895,97.3892,67.6107,98.9294,261.2503,0,U,63214,999,7058,.47945E-3,.15978E-3,0
TEVEL2-6,2025-052F,2026-06-20T06:43:12.624672,15.34492782,.0004759,97.3898,67.6078,99.4633,260.7149,0,U,63215,999,7058,.47994E-3,.15976E-3,0
TEVEL2-1,2025-052H,2026-06-20T04:18:41.324544,15.33952529,.00048734,97.3873,67.1285,107.5627,252.6148,0,U,63217,999,7055,.47659428E-3,.15594E-3,0
TEVEL2-3,2025-052J,2026-06-20T10:26:32.863776,15.34015837,.0004851,97.3872,67.4058,107.4306,252.7467,0,U,63218,999,7059,.46415E-3,.15215E-3,0
TEVEL2-2,2025-052K,2026-06-20T10:34:51.403872,15.33968526,.0004899,97.3872,67.3917,108.0209,252.1568,0,U,63219,999,7059,.46281E-3,.15148E-3,0
TEVEL2-9,2025-052AD,2026-06-20T10:08:24.298080,15.31981442,.0008057,97.3932,66.7416,121.8629,238.3398,0,U,63237,999,7052,.45158E-3,.1389E-3,0
TEVEL2-7,2025-052AE,2026-06-20T04:51:54.637344,15.31676701,.0008076,97.3934,66.4373,122.8867,237.3153,0,U,63238,999,7048,.43885E-3,.13367E-3,0
TEVEL2-8,2025-052AF,2026-06-19T16:31:13.361376,15.31647647,.00080754,97.3937,65.9009,124.5955,235.6049,0,U,63239,999,7040,.41221495E-3,.12538E-3,0
FORESAIL-1 PRIME,2025-276DS,2026-06-19T10:25:32.106432,15.18719306,.00039613,97.4197,243.6644,98.6161,261.5522,0,U,66778,999,3074,.19871349E-3,.4058E-4,0
