[
  {
    "name": "TEVEL2-4",
    "line1": "1 63213U 25052D   26171.44236345  .00016057  00000+0  47906-3 0  9994",
    "line2": "2 63213  97.3895  67.8392 0004959  96.9497 263.2310 15.34707854 70619"
  },
  {
    "name": "TEVEL2-5",
    "line1": "1 63214U 25052E   26171.26760575  .00015978  00000+0  47945-3 0  9996",
    "line2": "2 63214  97.3892  67.6107 0004895  98.9294 261.2503 15.34527610 70583"
  },
  {
    "name": "TEVEL2-6",
    "line1": "1 63215U 25052F   26171.28000723  .00015976  00000+0  47994-3 0  9993",
    "line2": "2 63215  97.3898  67.6078 0004759  99.4633 260.7149 15.34492782 70580"
  },
  {
    "name": "TEVEL2-1",
    "line1": "1 63217U 25052H   26171.17964496  .00015594  00000+0  47659-3 0  9993",
    "line2": "2 63217  97.3873  67.1285 0004873 107.5627 252.6148 15.33952529 70556"
  },
  {
    "name": "TEVEL2-3",
    "line1": "1 63218U 25052J   26171.43510259  .00015215  00000+0  46415-3 0  9996",
    "line2": "2 63218  97.3872  67.4058 0004851 107.4306 252.7467 15.34015837 70598"
  },
  {
    "name": "TEVEL2-2",
    "line1": "1 63219U 25052K   26171.44087273  .00015148  00000+0  46281-3 0  9999",
    "line2": "2 63219  97.3872  67.3917 0004899 108.0209 252.1568 15.33968526 70590"
  },
  {
    "name": "TEVEL2-9",
    "line1": "1 63237U 25052AD  26171.42250345  .00013890  00000+0  45158-3 0  9993",
    "line2": "2 63237  97.3932  66.7416 0008057 121.8629 238.3398 15.31981442 70523"
  },
  {
    "name": "TEVEL2-7",
    "line1": "1 63238U 25052AE  26171.20271571  .00013367  00000+0  43885-3 0  9998",
    "line2": "2 63238  97.3934  66.4373 0008076 122.8867 237.3153 15.31676701 70483"
  },
  {
    "name": "TEVEL2-8",
    "line1": "1 63239U 25052AF  26170.68834909  .00012538  00000+0  41221-3 0  9991",
    "line2": "2 63239  97.3937  65.9009 0008075 124.5955 235.6049 15.31647647 70407"
  },
  {
    "name": "ICEYE-X39",
    "line1": "1 60546U 24149CG  26171.21245838  .00002346  00000+0  19379-3 0  9997",
    "line2": "2 60546  97.6757 248.1948 0005642 110.8245 249.3583 14.99909996100570"
  },
  {
    "name": "UMBRA-10",
    "line1": "1 60547U 24149CH  26171.23090050  .00012937  00000+0  63693-3 0  9999",
    "line2": "2 60547  97.6973 258.5166 0000450  96.2050 263.9234 15.18117660101196"
  },
  {
    "name": "ICEYE-X33",
    "line1": "1 60548U 24149CJ  26171.16924262  .00003764  00000+0  30044-3 0  9995",
    "line2": "2 60548  97.7287 250.2934 0001863  87.7623 272.3814 15.00886995100651"
  },
  {
    "name": "ICEYE-X40",
    "line1": "1 60549U 24149CK  26171.17496119  .00001471  00000+0  12966-3 0  9998",
    "line2": "2 60549  97.6821 247.6228 0006451  73.4508 286.7422 14.97952761100523"
  },
  {
    "name": "SATELIOT_1",
    "line1": "1 60550U 24149CL  26171.03230595  .00002182  00000+0  18922-3 0  9997",
    "line2": "2 60550  97.6759 246.8828 0008396  72.2480 287.9659 14.98081894100490"
  },
  {
    "name": "BRO-14",
    "line1": "1 60551U 24149CM  26171.47236833  .00000831  00000+0  78789-4 0  9994",
    "line2": "2 60551  97.6871 247.1911 0008055  88.7163 271.4982 14.96180610100485"
  },
  {
    "name": "SATELIOT_3",
    "line1": "1 60552U 24149CN  26171.47566425  .00001552  00000+0  13612-3 0  9992",
    "line2": "2 60552  97.6815 248.1133 0005953  79.2522 280.9371 14.98063078100576"
  },
  {
    "name": "BRO-15",
    "line1": "1 60553U 24149CP  26170.71916882  .00001225  00000+0  11372-3 0  9993",
    "line2": "2 60553  97.6803 246.0506 0009310  80.7782 279.4492 14.96168721100386"
  },
  {
    "name": "UM5-RIBAT",
    "line1": "1 60554U 24149CQ  26171.47185764  .00002256  00000+0  18095-3 0  9999",
    "line2": "2 60554  97.6628 249.2283 0003288  56.5860 303.5678 15.01090090100683"
  },
  {
    "name": "UM5-EOSAT",
    "line1": "1 60555U 24149CR  26171.17068831  .00003625  00000+0  28429-3 0  9995",
    "line2": "2 60555  97.6716 249.8717 0008887 105.2114 255.0094 15.01552474100664"
  },
  {
    "name": "LASARSAT",
    "line1": "1 62391U 24247Q   26171.27059198  .00028493  00000+0  56523-3 0  9997",
    "line2": "2 62391  44.9733 244.8864 0007836 348.4451  11.6258 15.46534749 83790"
  },
  {
    "name": "CROCUBE",
    "line1": "1 62394U 24247T   26170.49048578  .00032668  00000+0  60622-3 0  9997",
    "line2": "2 62394  44.9701 246.5654 0007740 349.0739  10.9982 15.48397693 83708"
  },
  {
    "name": "FORESAIL-1 PRIME",
    "line1": "1 66778U 25276DS  26170.43439938  .00004058  00000+0  19871-3 0  9990",
    "line2": "2 66778  97.4197 243.6644 0003961  98.6161 261.5522 15.18719306 30740"
  }
]